GLOBALSTAR M067         
1 32263U 07048A   25094.68781873 -.00000033  00000+0  47984-3 0  9994
2 32263  51.9716 250.9972 0001394 152.1062 221.7768 12.40669759800364
GLOBALSTAR M070         
1 32264U 07048B   25094.81776102 -.00000057  00000+0  26040-3 0  9995
2 32264  51.9777 352.0167 0000644  60.2640  19.0147 12.62315205805384
GLOBALSTAR M066         
1 32265U 07048C   25094.73301014 -.00000059  00000+0  29198-3 0  9992
2 32265  51.9640 238.1564 0001946  92.8275  43.0436 12.35252703806225
GLOBALSTAR M068         
1 32266U 07048D   25094.64342209 -.00000043  00000+0  33685-3 0  9993
2 32266  51.9873 166.4429 0000569 347.8469 173.3798 12.62819236808269
GLOBALSTAR M079         
1 37188U 10054A   25094.48067862 -.00000070  00000+0  18635-3 0  9991
2 37188  52.0070   4.1600 0000852  90.8332  79.9051 12.62272533667142
GLOBALSTAR M074         
1 37189U 10054B   25094.71434965 -.00000053  00000+0  28361-3 0  9998
2 37189  52.0050   2.7838 0000525  82.9516 308.7135 12.62273517667780
GLOBALSTAR M076         
1 37190U 10054C   25094.45415046 -.00000079  00000+0  14059-3 0  9997
2 37190  52.0061   3.7364 0000628 103.7484  67.7794 12.62260387667468
GLOBALSTAR M077         
1 37191U 10054D   25094.56942013 -.00000069  00000+0  19541-3 0  9999
2 37191  52.0086 320.2262 0000796  91.6371 301.9175 12.62272851667854
